ONEWEB-0531             
1 54146U 22138AK  25167.78173752  .00000045  00000+0  78347-4 0  9998
2 54146  87.9261 347.2156 0002377  71.1353 289.0037 13.20772719131072
ONEWEB-0536             
1 54148U 22138AM  25167.76911931  .00000077  00000+0  15822-3 0  9990
2 54148  87.9260 347.2638 0002612  71.8728 288.2690 13.20772448131067
ONEWEB-0527             
1 54642U 22166A   25167.70913194  .00000017  00000+0  10381-4 0  9997
2 54642  87.9260 316.8941 0001930  96.6710 263.4644 13.21824754123258
ONEWEB-0539             
1 54644U 22166C   25167.67602239  .00000160  00000+0  35500-3 0  9998
2 54644  87.9244 316.8799 0001695 100.2686 259.8639 13.21827118123255
ONEWEB-0540             
1 54645U 22166D   25167.37967520  .00000105  00000+0  22202-3 0  9997
2 54645  87.9258 316.9681 0001657  99.2571 260.8751 13.21827447123207
ONEWEB-0542             
1 54646U 22166E   25167.68548313  .00000067  00000+0  13002-3 0  9992
2 54646  87.9242 316.8758 0001468  94.2968 265.8334 13.21826844123257
